{
    "links": {
        "self": "http://www.neowsapp.com/rest/v1/neo/3395954?api_key=iIulBulltgU6a56xZRHN4H3l9WmuAYTsLGpBGhQ2"
    },
    "id": "3395954",
    "neo_reference_id": "3395954",
    "name": "(2007 WK3)",
    "designation": "2007 WK3",
    "nasa_jpl_url": "http://ssd.jpl.nasa.gov/sbdb.cgi?sstr=3395954",
    "absolute_magnitude_h": 26.2,
    "estimated_diameter": {
        "kilometers": {
            "estimated_diameter_min": 0.0152951935,
            "estimated_diameter_max": 0.0342010925
        },
        "meters": {
            "estimated_diameter_min": 15.2951935344,
            "estimated_diameter_max": 34.201092472
        },
        "miles": {
            "estimated_diameter_min": 0.0095039897,
            "estimated_diameter_max": 0.021251567
        },
        "feet": {
            "estimated_diameter_min": 50.1810827555,
            "estimated_diameter_max": 112.2083122258
        }
    },
    "is_potentially_hazardous_asteroid": false,
    "close_approach_data": [
        {
            "close_approach_date": "2007-11-21",
            "close_approach_date_full": "2007-Nov-21 15:17",
            "epoch_date_close_approach": 1195658220000,
            "relative_velocity": {
                "kilometers_per_second": "7.5705377122",
                "kilometers_per_hour": "27253.9357639637",
                "miles_per_hour": "16934.5358084473"
            },
            "miss_distance": {
                "astronomical": "0.0342062589",
                "lunar": "13.3062347121",
                "kilometers": "5117183.472108543",
                "miles": "3179670.3662941734"
            },
            "orbiting_body": "Earth"
        }
    ],
    "orbital_data": {
        "orbit_id": "8",
        "orbit_determination_date": "2017-04-06 09:05:05",
        "first_observation_date": "2007-11-17",
        "last_observation_date": "2007-11-20",
        "data_arc_in_days": 3,
        "observations_used": 49,
        "orbit_uncertainty": "7",
        "minimum_orbit_intersection": ".0351344",
        "jupiter_tisserand_invariant": "4.183",
        "epoch_osculation": "2459000.5",
        "eccentricity": ".3889275987568097",
        "semi_major_axis": "1.645168648267592",
        "inclination": "9.970941694320425",
        "ascending_node_longitude": "233.603648625212",
        "orbital_period": "770.7509413427559",
        "perihelion_distance": "1.005317156346891",
        "perihelion_argument": "202.931930213108",
        "aphelion_distance": "2.285020140188293",
        "perihelion_time": "2459067.045661736179",
        "mean_anomaly": "328.9180551848707",
        "mean_motion": ".4670769514375547",
        "equinox": "J2000",
        "orbit_class": {
            "orbit_class_type": "APO",
            "orbit_class_description": "Near-Earth asteroid orbits which cross the Earth’s orbit similar to that of 1862 Apollo",
            "orbit_class_range": "a (semi-major axis) > 1.0 AU; q (perihelion) < 1.017 AU"
        }
    },
    "is_sentry_object": false
}